KUIPER-00112            
1 65150U 25171U   25335.83335647 -.00040042  00000+0 -42145-2 0  9999
2 65150  51.8949 228.5620 0010069 188.3723 247.7537 14.88945851  4695
KUIPER-00114            
1 65151U 25171V   25335.47016858  .00004195  00000+0  57913-3 0  9997
2 65151  51.9008 249.9336 0006749 136.6551 223.4943 14.79915357 18098
KUIPER-00115            
1 65152U 25171W   25335.47820700  .00017802  00000+0  23556-2 0  9991
2 65152  51.9006 242.3761 0010092 161.2685 198.8651 14.79946146 18208
KUIPER-00116            
1 65153U 25171X   25335.16887732  .00009304  00000+0  12463-2 0  9999
2 65153  51.8982 248.7899 0011688 122.4478 237.7617 14.79947581 18089
KUIPER-00118            
1 65154U 25171Y   25335.50382574  .00006060  00000+0  82313-3 0  9990
2 65154  51.9003 249.7616 0002172 127.0063 233.1098 14.79938923 18108
KUIPER-00119            
1 65155U 25171Z   25335.44974082 -.00004425  00000+0 -55095-3 0  9997
2 65155  51.9004 237.5841 0009179 146.9302 213.2236 14.79941310 18269
KUIPER-00120            
1 65762U 25217A   25335.72876227  .00005221  00000+0  52738-3 0  9999
2 65762  51.8923 126.0380 0016299 328.2249  31.7733 14.92397565 10234
KUIPER-00132            
1 65763U 25217B   25335.65105512  .00044474  00000+0  12045-2 0  9993
2 65763  51.8627 118.3711 0006755 341.0343  19.0391 15.37206545 10339
